[
    {
        "Altitude(m)": 611967.1746118504,
        "Argument of Periapsis(deg)": 0.0,
        "Eccentricity": 0.0,
        "Inclination(deg)": 60.0,
        "Latitude(deg)": 59.14014848027534,
        "Longitude(deg)": -168.90775612689035,
        "Mean Anomaly(deg)": 98.18179999999998,
        "RAAN(deg)": 184.99999999999997,
        "Satellite Name": "Test1 820",
        "Satellite Number": 820,
        "Semi-Major Axis(m)": 6980739.136638005,
        "Time(s)": 0
    },
    {
        "Altitude(m)": 611934.3737393109,
        "Argument of Periapsis(deg)": 0.00010418945913296404,
        "Eccentricity": 0.0,
        "Inclination(deg)": 60.0,
        "Latitude(deg)": 58.986508478932045,
        "Longitude(deg)": -167.784511985224,
        "Mean Anomaly(deg)": 98.80190614546184,
        "RAAN(deg)": 184.99957995086024,
        "Satellite Name": "Test1 820",
        "Satellite Number": 820,
        "Semi-Major Axis(m)": 6980739.136638005,
        "Time(s)": 10
    }
]